STARLINK-1154
1 25198C 20012W   21325.11442052  .00008964  00000-0  60079-3 0  3259
2 25198  53.0522 232.7264 0002098  64.6551  77.5025 15.06378981    13
